ONEWEB-0128             
1 47274U 20100S   24146.49384658 -.00000055  00000+0 -18773-3 0  9991
2 47274  87.8937 140.5353 0002226  92.7877 267.3506 13.12446376166011
ONEWEB-0129             
1 47275U 20100T   24146.47318433 -.00000332  00000+0 -95798-3 0  9998
2 47275  87.8924 140.5067 0003027  51.3884 308.7516 13.12442370165941
ONEWEB-0130             
1 47276U 20100U   24146.50180237  .00000340  00000+0  91040-3 0  9995
2 47276  87.8928 140.5109 0002243  87.5253 272.6133 13.12445218165918
ONEWEB-0131             
1 47277U 20100V   24146.49859503  .00000086  00000+0  20400-3 0  9992
2 47277  87.8930 140.5255 0002138  90.8816 269.2557 13.12445351165953
ONEWEB-0132             
1 47278U 20100W   24146.52721201  .00000166  00000+0  42678-3 0  9990
2 47278  87.8929 140.5217 0001939  93.4337 266.7013 13.12442574165857
ONEWEB-0133             
1 47279U 20100X   24146.54307817 -.00000386  00000+0 -11080-2 0  9994
2 47279  87.8923 140.5184 0002157  92.8432 267.2943 13.12441874166016
ONEWEB-0134             
1 47280U 20100Y   24146.51290145  .00000447  00000+0  12071-2 0  9995
2 47280  87.8923 140.5128 0002342  88.3491 271.7906 13.12444322165982
ONEWEB-0135             
1 47281U 20100Z   24146.48113382 -.00000270  00000+0 -78489-3 0  9991
2 47281  87.8929 140.5329 0002154  87.8507 272.2868 13.12443193166007
